     2.100          NAVIGATION                              RINEX VERSION / TYPE
fic2rin                                 07/06/2012 00:43:52 PGM / RUN BY / DATE
                                                            END OF HEADER
12 12  7  5  3 59 44.0  .781919807196D-04  .204636307899D-11  .000000000000D+00
     .400000000000D+01 -.971562500000D+02  .419696053454D-08  .284521242153D+01
    -.496767461300D-05  .406692223623D-02  .217556953430D-05  .515376826096D+04
     .359984000000D+06 -.745058059692D-08  .235640118881D+01  .521540641785D-07
     .980306270582D+00  .347000000000D+03  .101683434609D+00 -.820177020808D-08
    -.191436545529D-09  .100000000000D+01  .169500000000D+04  .000000000000D+00
     .240000000000D+01  .000000000000D+00 -.121071934700D-07  .400000000000D+01
     .354516000000D+06  .400000000000D+01
10 12  7  5  3 59 44.0 -.436492264271D-04 -.125055521494D-11  .000000000000D+00
     .450000000000D+02 -.272500000000D+02  .542272587830D-08  .632031535885D+00
    -.116415321827D-05  .113596701995D-01  .604987144470D-05  .515369824791D+04
     .359984000000D+06 -.484287738800D-07 -.790622504258D+00  .135973095894D-06
     .945396252692D+00  .253250000000D+03  .751646563039D+00 -.857750014445D-08
    -.675742433099D-09  .100000000000D+01  .169500000000D+04  .000000000000D+00
     .240000000000D+01  .000000000000D+00 -.232830643654D-08  .450000000000D+02
     .357156000000D+06  .400000000000D+01
30 12  7  5  3 59 44.0 -.278254039586D-03 -.245563569479D-10  .000000000000D+00
     .430000000000D+02 -.693750000000D+02  .471591072233D-08 -.467187176427D+00
    -.358559191227D-05  .112041394459D-01  .186078250408D-05  .515367596626D+04
     .359984000000D+06 -.130385160446D-06  .223060492023D+01  .260770320892D-07
     .960281783545D+00  .344656250000D+03  .157783646059D+01 -.867178978628D-08
    -.778603860547D-10  .100000000000D+01  .169500000000D+04  .000000000000D+00
     .240000000000D+01  .000000000000D+00 -.419095158577D-08  .430000000000D+02
     .358356000000D+06  .400000000000D+01
23 12  7  5  3 59 44.0  .188647769392D-03 -.386535248253D-11  .000000000000D+00
     .000000000000D+00  .666250000000D+02  .416517349619D-08 -.158076471496D+01
     .326707959175D-05  .807912717573D-02  .118408352137D-04  .515361588097D+04
     .359984000000D+06 -.186264514923D-08  .249640716252D+00 -.122934579849D-06
     .960110728923D+00  .152125000000D+03 -.298355574057D+01 -.768246286256D-08
    -.277868717205D-09  .100000000000D+01  .169500000000D+04  .000000000000D+00
     .240000000000D+01  .000000000000D+00 -.200234353542D-07  .000000000000D+00
     .358596000000D+06  .400000000000D+01
10 12  7  5  5 59 44.0 -.436580739915D-04 -.125055521494D-11  .000000000000D+00
     .500000000000D+02 -.300000000000D+02  .542772608658D-08  .168215932419D+01
    -.154972076416D-05  .113598511089D-01  .645592808723D-05  .515369927025D+04
     .367184000000D+06 -.309199094772D-06 -.790684938676D+00  .894069671631D-07
     .945392058505D+00  .250718750000D+03  .751691574103D+00 -.845678083029D-08
    -.520735976458D-09  .100000000000D+01  .169500000000D+04  .000000000000D+00
     .240000000000D+01  .000000000000D+00 -.232830643654D-08  .500000000000D+02
     .360006000000D+06  .400000000000D+01
12 12  7  5  5 59 44.0  .782068818808D-04  .204636307899D-11  .000000000000D+00
     .210000000000D+02 -.102125000000D+03  .421446126351D-08 -.238793439972D+01
    -.521726906300D-05  .406738778111D-02  .230222940445D-05  .515376727295D+04
     .367184000000D+06 -.391155481339D-07  .235634196989D+01  .353902578354D-07
     .980304781332D+00  .345968750000D+03  .101765808600D+00 -.822998566908D-08
    -.187864968187D-09  .100000000000D+01  .169500000000D+04  .000000000000D+00
     .240000000000D+01  .000000000000D+00 -.121071934700D-07  .210000000000D+02
     .360006000000D+06  .400000000000D+01
23 12  7  5  5 59 44.0  .188619829714D-03 -.386535248253D-11  .000000000000D+00
     .300000000000D+01  .532187500000D+02  .420481800469D-08 -.530408174544D+00
     .259838998318D-05  .808040320408D-02  .115707516670D-04  .515361896706D+04
     .367184000000D+06  .184401869774D-06  .249585877305D+00  .223517417908D-07
     .960107727015D+00  .157312500000D+03 -.298369927331D+01 -.784354100068D-08
    -.422517599554D-09  .100000000000D+01  .169500000000D+04  .000000000000D+00
     .240000000000D+01  .000000000000D+00 -.200234353542D-07  .300000000000D+01
     .360006000000D+06  .400000000000D+01
30 12  7  5  5 59 44.0 -.278430990875D-03 -.245563569479D-10  .000000000000D+00
     .440000000000D+02 -.627187500000D+02  .480234289400D-08  .583034301536D+00
    -.336766242981D-05  .112027083524D-01  .149384140968D-05  .515367317390D+04
     .367184000000D+06 -.726431608200D-07  .223054311926D+01 -.122934579849D-06
     .960280744873D+00  .354093750000D+03  .157779612940D+01 -.869036198846D-08
    -.210008747707D-09  .100000000000D+01  .169500000000D+04  .000000000000D+00
     .485000000000D+01  .000000000000D+00 -.419095158577D-08  .440000000000D+02
     .360006000000D+06  .400000000000D+01
 1 12  7  5  6  0  0.0  .264245551080D-03  .159161572810D-11  .000000000000D+00
     .450000000000D+02  .409375000000D+02  .489234664302D-08 -.155840996619D+01
     .199861824512D-05  .868759234436D-03  .766478478909D-05  .515364111519D+04
     .367200000000D+06 -.111758708954D-07 -.186141490135D+01 -.745058059692D-08
     .959725495779D+00  .231343750000D+03  .251295163955D+00 -.811998108695D-08
     .623954561641D-09  .100000000000D+01  .169500000000D+04  .000000000000D+00
     .240000000000D+01  .000000000000D+00  .838190317154D-08  .450000000000D+02
     .360006000000D+06  .400000000000D+01
 2 12  7  5  6  0  0.0  .395814888179D-03  .125055521494D-11  .000000000000D+00
     .390000000000D+02  .385937500000D+02  .548344269311D-08 -.685936219631D+00
     .215321779251D-05  .113144608913D-01  .754930078983D-05  .515371224785D+04
     .367200000000D+06  .247731804848D-06 -.187599551472D+01  .856816768646D-07
     .938276517132D+00  .220906250000D+03 -.276394758263D+01 -.847213861287D-08
     .687885796062D-09  .100000000000D+01  .169500000000D+04  .000000000000D+00
     .240000000000D+01  .000000000000D+00 -.172294676304D-07  .390000000000D+02
     .360006000000D+06  .400000000000D+01
 3 12  7  5  6  0  0.0  .712024047971D-04  .500222085975D-11  .000000000000D+00
     .134000000000D+03 -.925000000000D+02  .495413493103D-08 -.511136196474D+00
    -.477023422718D-05  .154942829395D-01  .105164945126D-04  .515373194122D+04
     .367200000000D+06 -.968575477600D-07 -.304025409314D+01  .176951289177D-06
     .932016772594D+00  .166593750000D+03  .120220361590D+01 -.848821071090D-08
     .123576576032D-09  .100000000000D+01  .169500000000D+04  .000000000000D+00
     .340000000000D+01  .000000000000D+00 -.465661287308D-08  .134000000000D+03
     .360006000000D+06  .400000000000D+01
 4 12  7  5  6  0  0.0  .234404578805D-03  .113686837722D-10  .000000000000D+00
     .110000000000D+02  .382187500000D+02  .540808241120D-08  .253230883991D+01
     .189989805222D-05  .100170940859D-01  .767409801483D-05  .515361580849D+04
     .367200000000D+06 -.130385160446D-07 -.185914279061D+01 -.141561031342D-06
     .937321835811D+00  .219875000000D+03  .865940891308D+00 -.821962809479D-08
     .670385067086D-09  .100000000000D+01  .169500000000D+04  .000000000000D+00
     .240000000000D+01  .000000000000D+00 -.605359673500D-08  .110000000000D+02
     .360006000000D+06  .400000000000D+01
 5 12  7  5  6  0  0.0 -.331701710820D-03 -.352429196937D-11  .000000000000D+00
     .540000000000D+02 -.281250000000D+02  .533665086436D-08  .143842651482D+01
    -.122189521790D-05  .270549091510D-02  .596605241299D-05  .515368457413D+04
     .367200000000D+06  .838190317154D-07 -.812031198530D+00  .670552253723D-07
     .950498594962D+00  .258250000000D+03  .207680103236D+00 -.840749306298D-08
    -.531450708484D-09  .100000000000D+01  .169500000000D+04  .000000000000D+00
     .240000000000D+01  .000000000000D+00 -.102445483208D-07  .540000000000D+02
     .360006000000D+06  .400000000000D+01
 6 12  7  5  6  0  0.0  .109076499939D-04 -.454747350886D-11  .000000000000D+00
     .130000000000D+02 -.995312500000D+02  .471305346045D-08  .136568162742D+01
    -.516884028912D-05  .735645485111D-02  .106953084469D-04  .515369433403D+04
     .367200000000D+06  .137835741043D-06 -.296337217728D+01  .800937414169D-07
     .938854485344D+00  .162781250000D+03 -.503413517765D+00 -.802461997192D-08
     .857178562071D-10  .100000000000D+01  .169500000000D+04  .000000000000D+00
     .240000000000D+01  .000000000000D+00 -.512227416039D-08  .130000000000D+02
     .360006000000D+06  .400000000000D+01
 7 12  7  5  6  0  0.0  .972370617092D-04  .375166564481D-11  .000000000000D+00
     .750000000000D+02  .112312500000D+03  .418696011798D-08 -.202359499440D+01
     .579282641411D-05  .559843517840D-02  .380538403988D-05  .515359918594D+04
     .367200000000D+06 -.540167093277D-07  .129920151554D+01  .260770320892D-07
     .975685945190D+00  .316531250000D+03 -.302536176850D+01 -.804854954011D-08
     .359300680601D-09  .100000000000D+01  .169500000000D+04  .000000000000D+00
     .240000000000D+01  .000000000000D+00 -.107102096081D-07  .750000000000D+02
     .360006000000D+06  .400000000000D+01
 8 12  7  5  6  0  0.0  .167917460203D-05  .113686837722D-12  .000000000000D+00
     .280000000000D+02  .112062500000D+03  .372729811407D-08 -.273477883356D+01
     .569596886635D-05  .123963420046D-01  .336393713951D-05  .515366960335D+04
     .367200000000D+06 -.651925802231D-07  .138340032735D+01 -.745058059692D-07
     .997876724245D+00  .336625000000D+03 -.296381560970D+01 -.782389732530D-08
     .359300680601D-09  .100000000000D+01  .169500000000D+04  .000000000000D+00
     .240000000000D+01  .000000000000D+00 -.372529029846D-08  .280000000000D+02
     .360006000000D+06  .400000000000D+01
